FENGYUN 1C DEB          
1 30059U 99025PL  26160.72563213  .00000201  00000+0  29103-3 0  9996
2 30059  98.8373 139.8996 0326200 208.3317 327.7661 13.45594450952041
FENGYUN 1C DEB          
1 30060U 99025PM  26159.15205407  .00001072  00000+0  13378-2 0  9994
2 30060  99.3063  17.9937 0346017 350.1611 133.2530 13.44249777946267
FENGYUN 1C DEB          
1 30061U 99025PN  26160.35821292  .00002921  00000+0  32207-2 0  9991
2 30061 101.8912 308.4167 0367572 204.6042 213.9559 13.47528403945044
FENGYUN 1C DEB          
1 30062U 99025PP  26160.80488949  .00000293  00000+0  19831-3 0  9999
2 30062  98.7758 169.8916 0047192 263.2162 274.4423 14.07351287994266
FENGYUN 1C DEB          
1 30063U 99025PQ  26160.50871799  .00000096  00000+0  70146-4 0  9994
2 30063  98.5425 136.7420 0031908 343.8341 143.4556 14.15674311  1953
FENGYUN 1C DEB          
1 30064U 99025PR  26160.85977031  .00000211  00000+0  13016-3 0  9990
2 30064  98.6553 171.4799 0064705 320.5528 159.9310 14.14396559   371
FENGYUN 1C DEB          
1 30065U 99025PS  26160.62674211  .00000098  00000+0  11166-3 0  9997
2 30065  98.7076 126.0540 0129727 263.1660  95.4724 13.86987659981510
FENGYUN 1C DEB          
1 30066U 99025PT  26160.77883425  .00000234  00000+0  12270-3 0  9992
2 30066  98.6464 151.8450 0118769 105.4765  21.9425 14.19233969  3753
FENGYUN 1C DEB          
1 30067U 99025PU  26160.68735441  .00000654  00000+0  18014-3 0  9995
2 30067  98.7481  57.0443 0149549 201.8375 220.7971 14.44187521 17784
FENGYUN 1C DEB          
1 30068U 99025PV  26160.76549889  .00000192  00000+0  10839-3 0  9998
2 30068  98.7510 149.3216 0189430 199.2738 160.1202 14.12172802998702
FENGYUN 1C DEB          
1 30069U 99025PW  26160.72543284  .00000097  00000+0  85832-4 0  9998
2 30069  98.8193 142.5515 0047570 271.1438 268.3535 14.05379773993605
FENGYUN 1C DEB          
1 30070U 99025PX  26160.70794782  .00003057  00000+0  10380-2 0  9992
2 30070  98.2629 211.5960 0325892 163.3366 325.1638 14.11383235984021
FENGYUN 1C DEB          
1 30071U 99025PY  26160.55044278  .00006353  00000+0  14514-2 0  9999
2 30071  98.6601 270.8975 0035424 280.4671 145.3959 14.55703669  8232
FENGYUN 1C DEB          
1 30072U 99025PZ  26160.73037495  .00006865  00000+0  20972-2 0  9996
2 30072  99.0866 324.6125 0057654 107.7752 252.9737 14.41228840997465
FENGYUN 1C DEB          
1 30073U 99025QA  26160.52630146  .00001826  00000+0  87254-3 0  9995
2 30073  99.4215 149.8330 0053881 134.3797 347.9889 14.19768780994610
FENGYUN 1C DEB          
1 30074U 99025QB  26156.41859988  .00002179  00000+0  11280-2 0  9993
2 30074  99.1156 231.0303 0094074  21.3007 339.2041 14.13743463991294
FENGYUN 1C DEB          
1 30075U 99025QC  26160.67908742  .00000176  00000+0  16568-3 0  9990
2 30075  99.3331 217.5825 0091561  54.9366  71.7610 13.92596439985555
FENGYUN 1C DEB          
1 30076U 99025QD  26160.74895712  .00000205  00000+0  22738-3 0  9990
2 30076  99.2535 147.4374 0174547 342.4217 197.6756 13.76415501973566
FENGYUN 1C DEB          
1 30077U 99025QE  26160.61578280 -.00000032  00000+0  62747-5 0  9990
2 30077  98.7472 175.6191 0022456 119.1803   3.1393 14.07105185996283
FENGYUN 1C DEB          
1 30078U 99025QF  26160.72227264  .00003292  00000+0  14205-2 0  9999
2 30078  98.8225 241.2390 0051949 122.8665   6.2107 14.24434840996603
FENGYUN 1C DEB          
1 30079U 99025QG  26160.11589074  .00000351  00000+0  25543-3 0  9994
2 30079  98.9979 218.3114 0087622 165.0993 249.7657 14.00898552990358
FENGYUN 1C DEB          
1 30080U 99025QH  26160.70151598  .00000257  00000+0  15444-3 0  9991
2 30080  98.7173 140.8456 0131241 272.4339 269.9914 14.10975914997611
FENGYUN 1C DEB          
1 30081U 99025QJ  26160.76197291  .00000143  00000+0  12690-3 0  9992
2 30081  98.9308 157.2813 0075350 203.1612 339.1035 13.98459861988567
FENGYUN 1C DEB          
1 30082U 99025QK  26160.40078159  .00029544  00000+0  10382-2 0  9996
2 30082  98.8291 123.7677 0050216 284.5664  75.0004 15.28125130 40103
FENGYUN 1C DEB          
1 30086U 99025QP  26160.34876127  .00000111  00000+0  96110-4 0  9998
2 30086  98.8865 195.3179 0060963 357.7145  21.4984 14.04016328992023
FENGYUN 1C DEB          
1 30087U 99025QQ  26160.02430826  .00000531  00000+0  14973-3 0  9998
2 30087  98.3570 192.2635 0227148 308.8301 109.0927 14.36095633 12525
FENGYUN 1C DEB          
1 30088U 99025QR  26160.51394355  .00001302  00000+0  36480-3 0  9993
2 30088  98.3704 144.6997 0202059  73.1605  50.9681 14.36381778 12361
FENGYUN 1C DEB          
1 30089U 99025QS  26160.72096557  .00000485  00000+0  19755-3 0  9997
2 30089  98.8978  75.2436 0074823  49.4963  18.3301 14.30538982 10377
FENGYUN 1C DEB          
1 30090U 99025QT  26160.46522191  .00000482  00000+0  20545-3 0  9994
2 30090  99.4155 352.7699 0056687 321.2087  97.6310 14.29406773  8224
FENGYUN 1C DEB          
1 30092U 99025QV  26160.52897433  .00001115  00000+0  35664-3 0  9999
2 30092  98.9273 352.1731 0083634  82.2384 339.8486 14.39715993 13137
FENGYUN 1C DEB          
1 30093U 99025QW  26160.66001258  .00001692  00000+0  48842-3 0  9999
2 30093  98.8511  47.6642 0068637 161.6822 255.4008 14.44639658 13877
FENGYUN 1C DEB          
1 30095U 99025QY  26160.39489293  .00009986  00000+0  88611-3 0  9992
2 30095  99.2305 114.7199 0150903 128.3490 233.1396 14.88038029 19868
FENGYUN 1C DEB          
1 30096U 99025QZ  26160.49149510  .00000596  00000+0  23175-3 0  9991
2 30096  99.1373 254.1739 0080250  75.0571 285.9479 14.31992614 11009
FENGYUN 1C DEB          
1 30099U 99025RC  26160.70493001  .00000463  00000+0  20668-3 0  9992
2 30099  98.5192 233.2838 0062927  82.3079  48.2906 14.26182714  7351
FENGYUN 1C DEB          
1 30102U 99025RF  26160.80885358  .00000366  00000+0  16569-3 0  9995
2 30102  98.3775 164.8276 0140958 196.3302 343.4639 14.22341744  5023
FENGYUN 1C DEB          
1 30103U 99025RG  26160.50825005  .00000728  00000+0  32391-3 0  9999
2 30103  99.2584 156.6668 0062310 330.4548 157.9578 14.25277430  4655
FENGYUN 1C DEB          
1 30104U 99025RH  26160.48825578  .00000998  00000+0  42244-3 0  9999
2 30104  98.3561 354.3937 0071849 304.1049 115.6720 14.26196810  4381
FENGYUN 1C DEB          
1 30105U 99025RJ  26160.72020826  .00000466  00000+0  19214-3 0  9991
2 30105  98.6092 147.4052 0196528 274.9845  82.8925 14.21764987  3048
FENGYUN 1C DEB          
1 30106U 99025RK  26160.42786498  .00066059  00000+0  43923-2 0  9996
2 30106  98.9150  97.2496 0030707 345.6594 134.0086 15.06497846 12032
FENGYUN 1C DEB          
1 30107U 99025RL  26159.87245438  .00000162  00000+0  98424-4 0  9999
2 30107  98.8185 219.8728 0128434 128.6649 232.6099 14.14503052   788
FENGYUN 1C DEB          
1 30108U 99025RM  26160.54651454  .00000327  00000+0  15252-3 0  9995
2 30108  98.6758 147.1514 0195673 227.8788 259.2101 14.17436540  1302
FENGYUN 1C DEB          
1 30109U 99025RN  26160.76775311  .00000781  00000+0  34953-3 0  9992
2 30109  98.5185 151.9956 0168977  75.6164 100.9438 14.17864853   893
FENGYUN 1C DEB          
1 30110U 99025RP  26159.54314206  .00000251  00000+0  32997-3 0  9998
2 30110  98.9118 256.5816 0266764 254.7299 102.4210 13.56318571959255
FENGYUN 1C DEB          
1 30112U 99025RR  26160.71722648  .00001071  00000+0  40913-3 0  9992
2 30112  99.2975 149.4731 0198674 319.0548  39.5851 14.22874921  1264
FENGYUN 1C DEB          
1 30113U 99025RS  26160.61828716  .00004245  00000+0  11561-2 0  9997
2 30113  99.0321  29.6164 0036797 186.6004 228.9024 14.47600470  4935
FENGYUN 1C DEB          
1 30114U 99025RT  26160.52509867  .00000306  00000+0  19287-3 0  9999
2 30114  98.7486 162.9234 0080574 335.0943 150.4630 14.09792821996737
FENGYUN 1C DEB          
1 30115U 99025RU  26160.60701895  .00001415  00000+0  66497-3 0  9991
2 30115  98.6035 188.2089 0064891 262.6905 224.0820 14.20501081998676
FENGYUN 1C DEB          
1 30116U 99025RV  26160.21838163  .00002511  00000+0  97833-3 0  9994
2 30116  99.3879 250.1933 0021475 186.7984 238.1675 14.30613551   543
FENGYUN 1C DEB          
1 30117U 99025RW  26160.78607913  .00000461  00000+0  26464-3 0  9998
2 30117  98.8178 149.8639 0165114  65.7995  55.3844 14.07303879995075
FENGYUN 1C DEB          
1 30118U 99025RX  26160.75872035  .00000330  00000+0  22401-3 0  9997
2 30118  98.8037 164.3108 0083225 277.6454 261.6835 14.05195235994455
FENGYUN 1C DEB          
1 30119U 99025RY  26160.50594902  .00002433  00000+0  99504-3 0  9999
2 30119  97.9313 141.7755 0131261 122.8015   4.2160 14.23419117997226
FENGYUN 1C DEB          
1 30120U 99025RZ  26160.22638587  .00002834  00000+0  11142-2 0  9994
2 30120  98.8437 249.5254 0061511  55.1408 359.4879 14.29034472999193
FENGYUN 1C DEB          
1 30121U 99025SA  26160.55870266  .00006271  00000+0  18944-2 0  9999
2 30121 102.1567 261.7219 0028788  58.2767 317.5349 14.42729902  1077
FENGYUN 1C DEB          
1 30123U 99025SC  26160.48449717  .00001488  00000+0  47867-3 0  9998
2 30123  96.9304  69.0737 0222852 259.6004  97.9998 14.27252735997960
FENGYUN 1C DEB          
1 30124U 99025SD  26160.13570231  .00001155  00000+0  56623-3 0  9998
2 30124  99.1124 222.8669 0139948 322.5148  90.9878 14.14888243994378
FENGYUN 1C DEB          
1 30125U 99025SE  26160.53616984  .00004697  00000+0  11372-2 0  9994
2 30125  98.7245 263.1850 0338197 184.9551 197.0915 14.24095779994650
FENGYUN 1C DEB          
1 30127U 99025SG  26160.54608169  .00004907  00000+0  14911-2 0  9999
2 30127  98.2028  14.5270 0079516 261.5733  97.6437 14.40730291998089
FENGYUN 1C DEB          
1 30128U 99025SH  26160.61823463  .00008434  00000+0  20250-2 0  9996
2 30128  96.9862 133.6253 0096398 281.7192 132.6788 14.50774666999013
FENGYUN 1C DEB          
1 30129U 99025SJ  26158.74572234  .00000683  00000+0  40913-3 0  9992
2 30129  98.0391  84.7818 0183514 308.1771 110.5844 14.01867351989580
